start=new Date('2022-11-20T00:00:00.000Z').valueOf();
sats=[{"SITE":"AFETR","MEAN_MOTION_DOT":"0.00001599","CENTER_NAME":"EARTH","LAUNCH_DATE":"2021-04-29","FILE":"3663561","TLE_LINE1":"1 48330U 21036BG  22323.69371968  .00001599  00000-0  12624-3 0  9993","OBJECT_NAME":"STARLINK-2501","PERIAPSIS":"546.307","PERIOD":"95.592","EPHEMERIS_TYPE":"0","SEMIMAJOR_AXIS":"6925.345","OBJECT_TYPE":"PAYLOAD","TIME_SYSTEM":"UTC","INCLINATION":"53.0555","REF_FRAME":"TEME","ECCENTRICITY":"0.00013040","MEAN_MOTION_DDOT":"0.0000000000000","RA_OF_ASC_NODE":"115.5535","CLASSIFICATION_TYPE":"U","ARG_OF_PERICENTER":"82.0470","MEAN_MOTION":"15.06401286","TLE_LINE2":"2 48330  53.0555 115.5535 0001304  82.0470 278.0667 15.06401286 86268","APOAPSIS":"548.113","EPOCH":"2022-11-19T16:38:57.380352","NORAD_CAT_ID":"48330","BSTAR":"0.00012624000000","ELEMENT_SET_NO":"999","GP_ID":"218234658","MEAN_ELEMENT_THEORY":"SGP4","RCS_SIZE":"LARGE","REV_AT_EPOCH":"8626","DECAY_DATE":null,"OBJECT_ID":"2021-036BG","COUNTRY_CODE":"US","MEAN_ANOMALY":"278.0667"},{"TLE_LINE2":"2 48331  53.0544 115.5686 0001585  58.1100 302.0043 15.06393755 86266","APOAPSIS":"548.330","EPOCH":"2022-11-19T16:33:39.581280","BSTAR":"0.00011689000000","NORAD_CAT_ID":"48331","ELEMENT_SET_NO":"999","GP_ID":"218235408","MEAN_ELEMENT_THEORY":"SGP4","RCS_SIZE":"LARGE","REV_AT_EPOCH":"8626","DECAY_DATE":null,"OBJECT_ID":"2021-036BH","COUNTRY_CODE":"US","MEAN_ANOMALY":"302.0043","MEAN_MOTION_DDOT":"0.0000000000000","RA_OF_ASC_NODE":"115.5686","CLASSIFICATION_TYPE":"U","ARG_OF_PERICENTER":"58.1100","MEAN_MOTION":"15.06393755","OBJECT_NAME":"STARLINK-2514","PERIAPSIS":"546.135","PERIOD":"95.593","EPHEMERIS_TYPE":"0","SEMIMAJOR_AXIS":"6925.368","OBJECT_TYPE":"PAYLOAD","TIME_SYSTEM":"UTC","INCLINATION":"53.0544","REF_FRAME":"TEME","ECCENTRICITY":"0.00015850","SITE":"AFETR","MEAN_MOTION_DOT":"0.00001460","CENTER_NAME":"EARTH","LAUNCH_DATE":"2021-04-29","FILE":"3663561","TLE_LINE1":"1 48331U 21036BH  22323.69004145  .00001460  00000-0  11689-3 0  9991"},{"FILE":"3663384","TLE_LINE1":"1 48332U 21036BJ  22323.68909658  .00000891  00000-0  78709-4 0  9998","LAUNCH_DATE":"2021-04-29","CENTER_NAME":"EARTH","MEAN_MOTION_DOT":"0.00000891","SITE":"AFETR","INCLINATION":"53.0545","REF_FRAME":"TEME","ECCENTRICITY":"0.00012620","OBJECT_TYPE":"PAYLOAD","TIME_SYSTEM":"UTC","PERIOD":"95.592","SEMIMAJOR_AXIS":"6925.353","EPHEMERIS_TYPE":"0","OBJECT_NAME":"STARLINK-2511","PERIAPSIS":"546.344","ARG_OF_PERICENTER":"87.2149","MEAN_MOTION":"15.06398582","RA_OF_ASC_NODE":"115.5525","CLASSIFICATION_TYPE":"U","MEAN_MOTION_DDOT":"0.0000000000000","COUNTRY_CODE":"US","MEAN_ANOMALY":"272.8984","MEAN_ELEMENT_THEORY":"SGP4","GP_ID":"218210550","RCS_SIZE":"LARGE","REV_AT_EPOCH":"8685","DECAY_DATE":null,"OBJECT_ID":"2021-036BJ","ELEMENT_SET_NO":"999","TLE_LINE2":"2 48332  53.0545 115.5525 0001262  87.2149 272.8984 15.06398582 86854","EPOCH":"2022-11-19T16:32:17.944512","APOAPSIS":"548.092","NORAD_CAT_ID":"48332","BSTAR":"0.00007870900000"},{"CLASSIFICATION_TYPE":"U","RA_OF_ASC_NODE":"115.0046","MEAN_MOTION":"15.06403131","ARG_OF_PERICENTER":"60.1509","MEAN_MOTION_DDOT":"0.0000000000000","DECAY_DATE":null,"OBJECT_ID":"2021-036BK","REV_AT_EPOCH":"8628","RCS_SIZE":"LARGE","MEAN_ELEMENT_THEORY":"SGP4","GP_ID":"218235907","MEAN_ANOMALY":"299.9632","COUNTRY_CODE":"US","BSTAR":"0.00013688000000","NORAD_CAT_ID":"48333","APOAPSIS":"548.262","EPOCH":"2022-11-19T19:34:06.852576","TLE_LINE2":"2 48333  53.0569 115.0046 0001528  60.1509 299.9632 15.06403131 86283","ELEMENT_SET_NO":"999","LAUNCH_DATE":"2021-04-29","TLE_LINE1":"1 48333U 21036BK  22323.81535709  .00001758  00000-0  13688-3 0  9993","FILE":"3663561","SITE":"AFETR","MEAN_MOTION_DOT":"0.00001758","CENTER_NAME":"EARTH","TIME_SYSTEM":"UTC","OBJECT_TYPE":"PAYLOAD","ECCENTRICITY":"0.00015280","REF_FRAME":"TEME","INCLINATION":"53.0569","PERIAPSIS":"546.146","OBJECT_NAME":"STARLINK-2518","EPHEMERIS_TYPE":"0","SEMIMAJOR_AXIS":"6925.339","PERIOD":"95.592"},{"SEMIMAJOR_AXIS":"6925.333","EPHEMERIS_TYPE":"0","PERIOD":"95.592","PERIAPSIS":"546.330","OBJECT_NAME":"STARLINK-2470","REF_FRAME":"TEME","ECCENTRICITY":"0.00012530","INCLINATION":"53.0547","TIME_SYSTEM":"UTC","OBJECT_TYPE":"PAYLOAD","MEAN_MOTION_DOT":"0.00003159","CENTER_NAME":"EARTH","SITE":"AFETR","TLE_LINE1":"1 48334U 21036BL  22323.47993627  .00003159  00000-0  23083-3 0  9990","FILE":"3663316","LAUNCH_DATE":"2021-04-29","ELEMENT_SET_NO":"999","EPOCH":"2022-11-19T11:31:06.493728","APOAPSIS":"548.065","NORAD_CAT_ID":"48334","BSTAR":"0.00023083000000","TLE_LINE2":"2 48334  53.0547 116.4951 0001253  93.3281 266.7851 15.06405176 86231","MEAN_ANOMALY":"266.7851","COUNTRY_CODE":"US","REV_AT_EPOCH":"8623","OBJECT_ID":"2021-036BL","DECAY_DATE":null,"GP_ID":"218205139","MEAN_ELEMENT_THEORY":"SGP4","RCS_SIZE":"LARGE","MEAN_MOTION_DDOT":"0.0000000000000","ARG_OF_PERICENTER":"93.3281","MEAN_MOTION":"15.06405176","CLASSIFICATION_TYPE":"U","RA_OF_ASC_NODE":"116.4951"},{"TIME_SYSTEM":"UTC","OBJECT_TYPE":"PAYLOAD","ECCENTRICITY":"0.00014240","REF_FRAME":"TEME","INCLINATION":"53.0540","PERIAPSIS":"546.429","OBJECT_NAME":"STARLINK-2441","SEMIMAJOR_AXIS":"6925.550","EPHEMERIS_TYPE":"0","PERIOD":"95.596","LAUNCH_DATE":"2021-04-29","TLE_LINE1":"1 48335U 21036BM  22323.40992170  .00007951  00000-0  55301-3 0  9998","FILE":"3663474","SITE":"AFETR","MEAN_MOTION_DOT":"0.00007951","CENTER_NAME":"EARTH","OBJECT_ID":"2021-036BM","DECAY_DATE":null,"REV_AT_EPOCH":"8681","RCS_SIZE":"LARGE","MEAN_ELEMENT_THEORY":"SGP4","GP_ID":"218212275","MEAN_ANOMALY":"279.2683","COUNTRY_CODE":"US","BSTAR":"0.00055301000000","NORAD_CAT_ID":"48335","EPOCH":"2022-11-19T09:50:17.234880","APOAPSIS":"548.401","TLE_LINE2":"2 48335  53.0540 116.8246 0001424  80.8467 279.2683 15.06334304 86813","ELEMENT_SET_NO":"999","CLASSIFICATION_TYPE":"U","RA_OF_ASC_NODE":"116.8246","MEAN_MOTION":"15.06334304","ARG_OF_PERICENTER":"80.8467","MEAN_MOTION_DDOT":"0.0000000000000"},{"PERIOD":"95.592","SEMIMAJOR_AXIS":"6925.329","EPHEMERIS_TYPE":"0","OBJECT_NAME":"STARLINK-2613","PERIAPSIS":"546.218","INCLINATION":"53.0546","REF_FRAME":"TEME","ECCENTRICITY":"0.00014100","OBJECT_TYPE":"PAYLOAD","TIME_SYSTEM":"UTC","CENTER_NAME":"EARTH","MEAN_MOTION_DOT":"0.00000352","SITE":"AFETR","FILE":"3663561","TLE_LINE1":"1 48353U 21038A   22323.54811599  .00000352  00000-0  42492-4 0  9996","LAUNCH_DATE":"2021-05-04","ELEMENT_SET_NO":"999","TLE_LINE2":"2 48353  53.0546  16.2041 0001410  68.0263 292.0875 15.06406387 85234","EPOCH":"2022-11-19T13:09:17.221536","APOAPSIS":"548.170","BSTAR":"0.00004249200000","NORAD_CAT_ID":"48353","COUNTRY_CODE":"US","MEAN_ANOMALY":"292.0875","GP_ID":"218236153","MEAN_ELEMENT_THEORY":"SGP4","RCS_SIZE":"LARGE","REV_AT_EPOCH":"8523","OBJECT_ID":"2021-038A","DECAY_DATE":null,"MEAN_MOTION_DDOT":"0.0000000000000","ARG_OF_PERICENTER":"68.0263","MEAN_MOTION":"15.06406387","RA_OF_ASC_NODE":"16.2041","CLASSIFICATION_TYPE":"U"},{"SEMIMAJOR_AXIS":"6925.332","EPHEMERIS_TYPE":"0","PERIOD":"95.592","PERIAPSIS":"546.248","OBJECT_NAME":"STARLINK-2674","ECCENTRICITY":"0.00013710","REF_FRAME":"TEME","INCLINATION":"53.0541","TIME_SYSTEM":"UTC","OBJECT_TYPE":"PAYLOAD","CENTER_NAME":"EARTH","MEAN_MOTION_DOT":"0.00002480","SITE":"AFETR","TLE_LINE1":"1 48354U 21038B   22323.54443536  .00002480  00000-0  18533-3 0  9991","FILE":"3663561","LAUNCH_DATE":"2021-05-04","ELEMENT_SET_NO":"999","BSTAR":"0.00018533000000","NORAD_CAT_ID":"48354","APOAPSIS":"548.147","EPOCH":"2022-11-19T13:03:59.215104","TLE_LINE2":"2 48354  53.0541  16.2216 0001371  69.8302 290.2834 15.06405345 85231","MEAN_ANOMALY":"290.2834","COUNTRY_CODE":"US","DECAY_DATE":null,"OBJECT_ID":"2021-038B","REV_AT_EPOCH":"8523","RCS_SIZE":"LARGE","MEAN_ELEMENT_THEORY":"SGP4","GP_ID":"218235909","MEAN_MOTION_DDOT":"0.0000000000000","MEAN_MOTION":"15.06405345","ARG_OF_PERICENTER":"69.8302","CLASSIFICATION_TYPE":"U","RA_OF_ASC_NODE":"16.2216"},{"LAUNCH_DATE":"2021-05-04","FILE":"3663561","TLE_LINE1":"1 48355U 21038C   22323.54075331  .00003602  00000-0  26057-3 0  9993","SITE":"AFETR","MEAN_MOTION_DOT":"0.00003602","CENTER_NAME":"EARTH","OBJECT_TYPE":"PAYLOAD","TIME_SYSTEM":"UTC","INCLINATION":"53.0564","ECCENTRICITY":"0.00016840","REF_FRAME":"TEME","OBJECT_NAME":"STARLINK-2635","PERIAPSIS":"546.035","PERIOD":"95.592","SEMIMAJOR_AXIS":"6925.336","EPHEMERIS_TYPE":"0","RA_OF_ASC_NODE":"16.2435","CLASSIFICATION_TYPE":"U","MEAN_MOTION":"15.06404082","ARG_OF_PERICENTER":"65.1257","MEAN_MOTION_DDOT":"0.0000000000000","RCS_SIZE":"LARGE","MEAN_ELEMENT_THEORY":"SGP4","GP_ID":"218235160","DECAY_DATE":null,"OBJECT_ID":"2021-038C","REV_AT_EPOCH":"8523","COUNTRY_CODE":"US","MEAN_ANOMALY":"294.9907","TLE_LINE2":"2 48355  53.0564  16.2435 0001684  65.1257 294.9907 15.06404082 85234","NORAD_CAT_ID":"48355","BSTAR":"0.00026057000000","APOAPSIS":"548.367","EPOCH":"2022-11-19T12:58:41.085984","ELEMENT_SET_NO":"999"},{"INCLINATION":"53.0561","REF_FRAME":"TEME","ECCENTRICITY":"0.00016590","OBJECT_TYPE":"PAYLOAD","TIME_SYSTEM":"UTC","PERIOD":"95.592","SEMIMAJOR_AXIS":"6925.343","EPHEMERIS_TYPE":"0","OBJECT_NAME":"STARLINK-2637","PERIAPSIS":"546.059","FILE":"3663561","TLE_LINE1":"1 48356U 21038D   22323.86879914  .00001587  00000-0  12539-3 0  9998","LAUNCH_DATE":"2021-05-04","MEAN_MOTION_DOT":"0.00001587","CENTER_NAME":"EARTH","SITE":"AFETR","COUNTRY_CODE":"US","MEAN_ANOMALY":"294.3342","MEAN_ELEMENT_THEORY":"SGP4","GP_ID":"218234911","RCS_SIZE":"LARGE","REV_AT_EPOCH":"8528","DECAY_DATE":null,"OBJECT_ID":"2021-038D","ELEMENT_SET_NO":"999","TLE_LINE2":"2 48356  53.0561  14.7514 0001659  65.7820 294.3342 15.06401916 85282","APOAPSIS":"548.357","EPOCH":"2022-11-19T20:51:04.245696","BSTAR":"0.00012539000000","NORAD_CAT_ID":"48356","ARG_OF_PERICENTER":"65.7820","MEAN_MOTION":"15.06401916","RA_OF_ASC_NODE":"14.7514","CLASSIFICATION_TYPE":"U","MEAN_MOTION_DDOT":"0.0000000000000"}];
